{
  "type": "FeatureCollection",
  "features": [
    {
      "type": "Feature",
      "properties": {
        "norad_id": 39586,
        "name": "COSMOS 2251 DEB",
        "group": "cosmos-2251-debris",
        "lat": -28.57378069562066,
        "lon": -133.40094384262676,
        "alt_km": 771.6818331376662,
        "timestamp": "2025-12-08T15:42:50.194423+00:00",
        "meta_object_name": "COSMOS 2251 DEB",
        "meta_object_id": "1993-036BUR",
        "meta_epoch": "2025-12-04T00:26:07.876608",
        "meta_mean_motion": 14.21195867,
        "meta_eccentricity": 0.01003221,
        "meta_inclination": 74.0095,
        "meta_ra_of_asc_node": 243.9042,
        "meta_arg_of_pericenter": 20.3845,
        "meta_mean_anomaly": 357.5964,
        "meta_ephemeris_type": 0,
        "meta_classification_type": "U",
        "meta_norad_cat_id": 39586,
        "meta_element_set_no": 999,
        "meta_rev_at_epoch": 60848,
        "meta_bstar": 0.00088936605,
        "meta_mean_motion_dot": 2.011e-05,
        "meta_mean_motion_ddot": 0,
        "tle_line1": "1 39586U 93036BUR 25338.01814672  .00002011  00000+0  88937-3 0  9993",
        "tle_line2": "2 39586  74.0095 243.9042 0100322  20.3845 357.5964 14.21195867608481"
      },
      "geometry": {
        "type": "Point",
        "coordinates": [
          -133.40094384262676,
          -28.57378069562066
        ]
      }
    },
    {
      "type": "Feature",
      "properties": {
        "norad_id": 39591,
        "name": "COSMOS 2251 DEB",
        "group": "cosmos-2251-debris",
        "lat": -72.67614809678454,
        "lon": -172.40962249260195,
        "alt_km": 760.3134888765117,
        "timestamp": "2025-12-08T15:42:50.194434+00:00",
        "meta_object_name": "COSMOS 2251 DEB",
        "meta_object_id": "1993-036BUW",
        "meta_epoch": "2025-12-07T12:37:20.058240",
        "meta_mean_motion": 14.41797082,
        "meta_eccentricity": 0.00291403,
        "meta_inclination": 74.0183,
        "meta_ra_of_asc_node": 256.4312,
        "meta_arg_of_pericenter": 11.534,
        "meta_mean_anomaly": 168.8103,
        "meta_ephemeris_type": 0,
        "meta_classification_type": "U",
        "meta_norad_cat_id": 39591,
        "meta_element_set_no": 999,
        "meta_rev_at_epoch": 61701,
        "meta_bstar": 0.00067199948,
        "meta_mean_motion_dot": 2.18e-05,
        "meta_mean_motion_ddot": 0,
        "tle_line1": "1 39591U 93036BUW 25341.52592660  .00002180  00000+0  67200-3 0  9996",
        "tle_line2": "2 39591  74.0183 256.4312 0029140  11.5340 168.8103 14.41797082617010"
      },
      "geometry": {
        "type": "Point",
        "coordinates": [
          -172.40962249260195,
          -72.67614809678454
        ]
      }
    },
    {
      "type": "Feature",
      "properties": {
        "norad_id": 40218,
        "name": "COSMOS 2251 DEB",
        "group": "cosmos-2251-debris",
        "lat": 5.311319885165343,
        "lon": 74.87528486264245,
        "alt_km": 766.5316833018269,
        "timestamp": "2025-12-08T15:42:50.194444+00:00",
        "meta_object_name": "COSMOS 2251 DEB",
        "meta_object_id": "1993-036BUX",
        "meta_epoch": "2025-12-02T02:20:48.132384",
        "meta_mean_motion": 14.41546301,
        "meta_eccentricity": 0.00163619,
        "meta_inclination": 74.0309,
        "meta_ra_of_asc_node": 268.5457,
        "meta_arg_of_pericenter": 353.795,
        "meta_mean_anomaly": 6.3,
        "meta_ephemeris_type": 0,
        "meta_classification_type": "U",
        "meta_norad_cat_id": 40218,
        "meta_element_set_no": 999,
        "meta_rev_at_epoch": 58708,
        "meta_bstar": 0.00047133972,
        "meta_mean_motion_dot": 1.508e-05,
        "meta_mean_motion_ddot": 0,
        "tle_line1": "1 40218U 93036BUX 25336.09777931  .00001508  00000+0  47134-3 0  9993",
        "tle_line2": "2 40218  74.0309 268.5457 0016361 353.7950   6.3000 14.41546301587082"
      },
      "geometry": {
        "type": "Point",
        "coordinates": [
          74.87528486264245,
          5.311319885165343
        ]
      }
    },
    {
      "type": "Feature",
      "properties": {
        "norad_id": 40223,
        "name": "COSMOS 2251 DEB",
        "group": "cosmos-2251-debris",
        "lat": -40.1247272845482,
        "lon": 83.04396082179588,
        "alt_km": 554.8868729878704,
        "timestamp": "2025-12-08T15:42:50.194454+00:00",
        "meta_object_name": "COSMOS 2251 DEB",
        "meta_object_id": "1993-036BVC",
        "meta_epoch": "2025-12-08T02:18:42.246720",
        "meta_mean_motion": 15.02755961,
        "meta_eccentricity": 0.00147022,
        "meta_inclination": 73.9387,
        "meta_ra_of_asc_node": 98.2429,
        "meta_arg_of_pericenter": 297.0015,
        "meta_mean_anomaly": 241.0654,
        "meta_ephemeris_type": 0,
        "meta_classification_type": "U",
        "meta_norad_cat_id": 40223,
        "meta_element_set_no": 999,
        "meta_rev_at_epoch": 59304,
        "meta_bstar": 0.0059468651,
        "meta_mean_motion_dot": 0.00080581,
        "meta_mean_motion_ddot": 0,
        "tle_line1": "1 40223U 93036BVC 25342.09632230  .00080581  00000+0  59469-2 0  9999",
        "tle_line2": "2 40223  73.9387  98.2429 0014702 297.0015 241.0654 15.02755961593046"
      },
      "geometry": {
        "type": "Point",
        "coordinates": [
          83.04396082179588,
          -40.1247272845482
        ]
      }
    },
    {
      "type": "Feature",
      "properties": {
        "norad_id": 40228,
        "name": "COSMOS 2251 DEB",
        "group": "cosmos-2251-debris",
        "lat": 67.36806991796799,
        "lon": -48.625678928017756,
        "alt_km": 752.3255792562359,
        "timestamp": "2025-12-08T15:42:50.194465+00:00",
        "meta_object_name": "COSMOS 2251 DEB",
        "meta_object_id": "1993-036BVH",
        "meta_epoch": "2025-12-07T13:33:16.737984",
        "meta_mean_motion": 14.40975918,
        "meta_eccentricity": 0.00238751,
        "meta_inclination": 74.0543,
        "meta_ra_of_asc_node": 270.0925,
        "meta_arg_of_pericenter": 332.416,
        "meta_mean_anomaly": 209.1246,
        "meta_ephemeris_type": 0,
        "meta_classification_type": "U",
        "meta_norad_cat_id": 40228,
        "meta_element_set_no": 999,
        "meta_rev_at_epoch": 58846,
        "meta_bstar": 0.0006394623,
        "meta_mean_motion_dot": 2.035e-05,
        "meta_mean_motion_ddot": 0,
        "tle_line1": "1 40228U 93036BVH 25341.56477706  .00002035  00000+0  63946-3 0  9994",
        "tle_line2": "2 40228  74.0543 270.0925 0023875 332.4160 209.1246 14.40975918588463"
      },
      "geometry": {
        "type": "Point",
        "coordinates": [
          -48.625678928017756,
          67.36806991796799
        ]
      }
    },
    {
      "type": "Feature",
      "properties": {
        "norad_id": 40230,
        "name": "COSMOS 2251 DEB",
        "group": "cosmos-2251-debris",
        "lat": 61.4351959214786,
        "lon": 22.850463987482737,
        "alt_km": 735.201490254789,
        "timestamp": "2025-12-08T15:42:50.194475+00:00",
        "meta_object_name": "COSMOS 2251 DEB",
        "meta_object_id": "1993-036BVK",
        "meta_epoch": "2025-12-05T11:49:12.794880",
        "meta_mean_motion": 14.49259606,
        "meta_eccentricity": 0.00191133,
        "meta_inclination": 74.0458,
        "meta_ra_of_asc_node": 240.4744,
        "meta_arg_of_pericenter": 299.5216,
        "meta_mean_anomaly": 242.5097,
        "meta_ephemeris_type": 0,
        "meta_classification_type": "U",
        "meta_norad_cat_id": 40230,
        "meta_element_set_no": 999,
        "meta_rev_at_epoch": 58866,
        "meta_bstar": 0.0014637297,
        "meta_mean_motion_dot": 5.571e-05,
        "meta_mean_motion_ddot": 0,
        "tle_line1": "1 40230U 93036BVK 25339.49250920  .00005571  00000+0  14637-2 0  9993",
        "tle_line2": "2 40230  74.0458 240.4744 0019113 299.5216 242.5097 14.49259606588661"
      },
      "geometry": {
        "type": "Point",
        "coordinates": [
          22.850463987482737,
          61.4351959214786
        ]
      }
    },
    {
      "type": "Feature",
      "properties": {
        "norad_id": 40233,
        "name": "COSMOS 2251 DEB",
        "group": "cosmos-2251-debris",
        "lat": 15.03094434438013,
        "lon": -73.50818582053823,
        "alt_km": 668.6336192375184,
        "timestamp": "2025-12-08T15:42:50.194485+00:00",
        "meta_object_name": "COSMOS 2251 DEB",
        "meta_object_id": "1993-036BVN",
        "meta_epoch": "2025-12-04T02:17:52.292832",
        "meta_mean_motion": 14.58236674,
        "meta_eccentricity": 0.00461905,
        "meta_inclination": 73.9387,
        "meta_ra_of_asc_node": 119.6526,
        "meta_arg_of_pericenter": 195.886,
        "meta_mean_anomaly": 164.0859,
        "meta_ephemeris_type": 0,
        "meta_classification_type": "U",
        "meta_norad_cat_id": 40233,
        "meta_element_set_no": 999,
        "meta_rev_at_epoch": 59011,
        "meta_bstar": 0.0029314151,
        "meta_mean_motion_dot": 0.00013736,
        "meta_mean_motion_ddot": 0,
        "tle_line1": "1 40233U 93036BVN 25338.09574413  .00013736  00000+0  29314-2 0  9997",
        "tle_line2": "2 40233  73.9387 119.6526 0046190 195.8860 164.0859 14.58236674590113"
      },
      "geometry": {
        "type": "Point",
        "coordinates": [
          -73.50818582053823,
          15.03094434438013
        ]
      }
    }
  ]
}